{
    "url": "https://haims2.doh.go.th/get/ref/region",
    "method": "GET",
    "response": {
        "code": 200,
        "status": true,
        "message": "",
        "data": [
            {
                "code": "10",
                "name_th": "\u0e01\u0e23\u0e38\u0e07\u0e40\u0e17\u0e1e\u0e21\u0e2b\u0e32\u0e19\u0e04\u0e23",
                "region_id": "7",
                "region_name": "\u0e01\u0e23\u0e38\u0e07\u0e40\u0e17\u0e1e\u0e41\u0e25\u0e30\u0e1b\u0e23\u0e34\u0e21\u0e13\u0e11\u0e25"
            },
            {
                "code": "11",
                "name_th": "\u0e2a\u0e21\u0e38\u0e17\u0e23\u0e1b\u0e23\u0e32\u0e01\u0e32\u0e23",
                "region_id": "7",
                "region_name": "\u0e01\u0e23\u0e38\u0e07\u0e40\u0e17\u0e1e\u0e41\u0e25\u0e30\u0e1b\u0e23\u0e34\u0e21\u0e13\u0e11\u0e25"
            },
            {
                "code": "12",
                "name_th": "\u0e19\u0e19\u0e17\u0e1a\u0e38\u0e23\u0e35",
                "region_id": "7",
                "region_name": "\u0e01\u0e23\u0e38\u0e07\u0e40\u0e17\u0e1e\u0e41\u0e25\u0e30\u0e1b\u0e23\u0e34\u0e21\u0e13\u0e11\u0e25"
            },
            {
                "code": "13",
                "name_th": "\u0e1b\u0e17\u0e38\u0e21\u0e18\u0e32\u0e19\u0e35",
                "region_id": "7",
                "region_name": "\u0e01\u0e23\u0e38\u0e07\u0e40\u0e17\u0e1e\u0e41\u0e25\u0e30\u0e1b\u0e23\u0e34\u0e21\u0e13\u0e11\u0e25"
            },
            {
                "code": "14",
                "name_th": "\u0e1e\u0e23\u0e30\u0e19\u0e04\u0e23\u0e28\u0e23\u0e35\u0e2d\u0e22\u0e38\u0e18\u0e22\u0e32",
                "region_id": "3",
                "region_name": "\u0e20\u0e32\u0e04\u0e01\u0e25\u0e32\u0e07"
            },
            {
                "code": "15",
                "name_th": "\u0e2d\u0e48\u0e32\u0e07\u0e17\u0e2d\u0e07",
                "region_id": "3",
                "region_name": "\u0e20\u0e32\u0e04\u0e01\u0e25\u0e32\u0e07"
            },
            {
                "code": "16",
                "name_th": "\u0e25\u0e1e\u0e1a\u0e38\u0e23\u0e35",
                "region_id": "3",
                "region_name": "\u0e20\u0e32\u0e04\u0e01\u0e25\u0e32\u0e07"
            },
            {
                "code": "17",
                "name_th": "\u0e2a\u0e34\u0e07\u0e2b\u0e4c\u0e1a\u0e38\u0e23\u0e35",
                "region_id": "3",
                "region_name": "\u0e20\u0e32\u0e04\u0e01\u0e25\u0e32\u0e07"
            },
            {
                "code": "18",
                "name_th": "\u0e0a\u0e31\u0e22\u0e19\u0e32\u0e17",
                "region_id": "3",
                "region_name": "\u0e20\u0e32\u0e04\u0e01\u0e25\u0e32\u0e07"
            },
            {
                "code": "19",
                "name_th": "\u0e2a\u0e23\u0e30\u0e1a\u0e38\u0e23\u0e35",
                "region_id": "3",
                "region_name": "\u0e20\u0e32\u0e04\u0e01\u0e25\u0e32\u0e07"
            },
            {
                "code": "20",
                "name_th": "\u0e0a\u0e25\u0e1a\u0e38\u0e23\u0e35",
                "region_id": "5",
                "region_name": "\u0e20\u0e32\u0e04\u0e15\u0e30\u0e27\u0e31\u0e19\u0e2d\u0e2d\u0e01"
            },
            {
                "code": "21",
                "name_th": "\u0e23\u0e30\u0e22\u0e2d\u0e07",
                "region_id": "5",
                "region_name": "\u0e20\u0e32\u0e04\u0e15\u0e30\u0e27\u0e31\u0e19\u0e2d\u0e2d\u0e01"
            },
            {
                "code": "22",
                "name_th": "\u0e08\u0e31\u0e19\u0e17\u0e1a\u0e38\u0e23\u0e35",
                "region_id": "5",
                "region_name": "\u0e20\u0e32\u0e04\u0e15\u0e30\u0e27\u0e31\u0e19\u0e2d\u0e2d\u0e01"
            },
            {
                "code": "23",
                "name_th": "\u0e15\u0e23\u0e32\u0e14",
                "region_id": "5",
                "region_name": "\u0e20\u0e32\u0e04\u0e15\u0e30\u0e27\u0e31\u0e19\u0e2d\u0e2d\u0e01"
            },
            {
                "code": "24",
                "name_th": "\u0e09\u0e30\u0e40\u0e0a\u0e34\u0e07\u0e40\u0e17\u0e23\u0e32",
                "region_id": "5",
                "region_name": "\u0e20\u0e32\u0e04\u0e15\u0e30\u0e27\u0e31\u0e19\u0e2d\u0e2d\u0e01"
            },
            {
                "code": "25",
                "name_th": "\u0e1b\u0e23\u0e32\u0e08\u0e35\u0e19\u0e1a\u0e38\u0e23\u0e35",
                "region_id": "5",
                "region_name": "\u0e20\u0e32\u0e04\u0e15\u0e30\u0e27\u0e31\u0e19\u0e2d\u0e2d\u0e01"
            },
            {
                "code": "26",
                "name_th": "\u0e19\u0e04\u0e23\u0e19\u0e32\u0e22\u0e01",
                "region_id": "5",
                "region_name": "\u0e20\u0e32\u0e04\u0e15\u0e30\u0e27\u0e31\u0e19\u0e2d\u0e2d\u0e01"
            },
            {
                "code": "27",
                "name_th": "\u0e2a\u0e23\u0e30\u0e41\u0e01\u0e49\u0e27",
                "region_id": "5",
                "region_name": "\u0e20\u0e32\u0e04\u0e15\u0e30\u0e27\u0e31\u0e19\u0e2d\u0e2d\u0e01"
            },
            {
                "code": "30",
                "name_th": "\u0e19\u0e04\u0e23\u0e23\u0e32\u0e0a\u0e2a\u0e35\u0e21\u0e32",
                "region_id": "2",
                "region_name": "\u0e20\u0e32\u0e04\u0e15\u0e30\u0e27\u0e31\u0e19\u0e2d\u0e2d\u0e01\u0e40\u0e09\u0e35\u0e22\u0e07\u0e40\u0e2b\u0e19\u0e37\u0e2d"
            },
            {
                "code": "31",
                "name_th": "\u0e1a\u0e38\u0e23\u0e35\u0e23\u0e31\u0e21\u0e22\u0e4c",
                "region_id": "2",
                "region_name": "\u0e20\u0e32\u0e04\u0e15\u0e30\u0e27\u0e31\u0e19\u0e2d\u0e2d\u0e01\u0e40\u0e09\u0e35\u0e22\u0e07\u0e40\u0e2b\u0e19\u0e37\u0e2d"
            },
            {
                "code": "32",
                "name_th": "\u0e2a\u0e38\u0e23\u0e34\u0e19\u0e17\u0e23\u0e4c",
                "region_id": "2",
                "region_name": "\u0e20\u0e32\u0e04\u0e15\u0e30\u0e27\u0e31\u0e19\u0e2d\u0e2d\u0e01\u0e40\u0e09\u0e35\u0e22\u0e07\u0e40\u0e2b\u0e19\u0e37\u0e2d"
            },
            {
                "code": "33",
                "name_th": "\u0e28\u0e23\u0e35\u0e2a\u0e30\u0e40\u0e01\u0e29",
                "region_id": "2",
                "region_name": "\u0e20\u0e32\u0e04\u0e15\u0e30\u0e27\u0e31\u0e19\u0e2d\u0e2d\u0e01\u0e40\u0e09\u0e35\u0e22\u0e07\u0e40\u0e2b\u0e19\u0e37\u0e2d"
            },
            {
                "code": "34",
                "name_th": "\u0e2d\u0e38\u0e1a\u0e25\u0e23\u0e32\u0e0a\u0e18\u0e32\u0e19\u0e35",
                "region_id": "2",
                "region_name": "\u0e20\u0e32\u0e04\u0e15\u0e30\u0e27\u0e31\u0e19\u0e2d\u0e2d\u0e01\u0e40\u0e09\u0e35\u0e22\u0e07\u0e40\u0e2b\u0e19\u0e37\u0e2d"
            },
            {
                "code": "35",
                "name_th": "\u0e22\u0e42\u0e2a\u0e18\u0e23",
                "region_id": "2",
                "region_name": "\u0e20\u0e32\u0e04\u0e15\u0e30\u0e27\u0e31\u0e19\u0e2d\u0e2d\u0e01\u0e40\u0e09\u0e35\u0e22\u0e07\u0e40\u0e2b\u0e19\u0e37\u0e2d"
            },
            {
                "code": "36",
                "name_th": "\u0e0a\u0e31\u0e22\u0e20\u0e39\u0e21\u0e34",
                "region_id": "2",
                "region_name": "\u0e20\u0e32\u0e04\u0e15\u0e30\u0e27\u0e31\u0e19\u0e2d\u0e2d\u0e01\u0e40\u0e09\u0e35\u0e22\u0e07\u0e40\u0e2b\u0e19\u0e37\u0e2d"
            },
            {
                "code": "37",
                "name_th": "\u0e2d\u0e33\u0e19\u0e32\u0e08\u0e40\u0e08\u0e23\u0e34\u0e0d",
                "region_id": "2",
                "region_name": "\u0e20\u0e32\u0e04\u0e15\u0e30\u0e27\u0e31\u0e19\u0e2d\u0e2d\u0e01\u0e40\u0e09\u0e35\u0e22\u0e07\u0e40\u0e2b\u0e19\u0e37\u0e2d"
            },
            {
                "code": "38",
                "name_th": "\u0e1a\u0e36\u0e07\u0e01\u0e32\u0e2c",
                "region_id": "2",
                "region_name": "\u0e20\u0e32\u0e04\u0e15\u0e30\u0e27\u0e31\u0e19\u0e2d\u0e2d\u0e01\u0e40\u0e09\u0e35\u0e22\u0e07\u0e40\u0e2b\u0e19\u0e37\u0e2d"
            },
            {
                "code": "39",
                "name_th": "\u0e2b\u0e19\u0e2d\u0e07\u0e1a\u0e31\u0e27\u0e25\u0e33\u0e20\u0e39",
                "region_id": "2",
                "region_name": "\u0e20\u0e32\u0e04\u0e15\u0e30\u0e27\u0e31\u0e19\u0e2d\u0e2d\u0e01\u0e40\u0e09\u0e35\u0e22\u0e07\u0e40\u0e2b\u0e19\u0e37\u0e2d"
            },
            {
                "code": "40",
                "name_th": "\u0e02\u0e2d\u0e19\u0e41\u0e01\u0e48\u0e19",
                "region_id": "2",
                "region_name": "\u0e20\u0e32\u0e04\u0e15\u0e30\u0e27\u0e31\u0e19\u0e2d\u0e2d\u0e01\u0e40\u0e09\u0e35\u0e22\u0e07\u0e40\u0e2b\u0e19\u0e37\u0e2d"
            },
            {
                "code": "41",
                "name_th": "\u0e2d\u0e38\u0e14\u0e23\u0e18\u0e32\u0e19\u0e35",
                "region_id": "2",
                "region_name": "\u0e20\u0e32\u0e04\u0e15\u0e30\u0e27\u0e31\u0e19\u0e2d\u0e2d\u0e01\u0e40\u0e09\u0e35\u0e22\u0e07\u0e40\u0e2b\u0e19\u0e37\u0e2d"
            },
            {
                "code": "42",
                "name_th": "\u0e40\u0e25\u0e22",
                "region_id": "2",
                "region_name": "\u0e20\u0e32\u0e04\u0e15\u0e30\u0e27\u0e31\u0e19\u0e2d\u0e2d\u0e01\u0e40\u0e09\u0e35\u0e22\u0e07\u0e40\u0e2b\u0e19\u0e37\u0e2d"
            },
            {
                "code": "43",
                "name_th": "\u0e2b\u0e19\u0e2d\u0e07\u0e04\u0e32\u0e22",
                "region_id": "2",
                "region_name": "\u0e20\u0e32\u0e04\u0e15\u0e30\u0e27\u0e31\u0e19\u0e2d\u0e2d\u0e01\u0e40\u0e09\u0e35\u0e22\u0e07\u0e40\u0e2b\u0e19\u0e37\u0e2d"
            },
            {
                "code": "44",
                "name_th": "\u0e21\u0e2b\u0e32\u0e2a\u0e32\u0e23\u0e04\u0e32\u0e21",
                "region_id": "2",
                "region_name": "\u0e20\u0e32\u0e04\u0e15\u0e30\u0e27\u0e31\u0e19\u0e2d\u0e2d\u0e01\u0e40\u0e09\u0e35\u0e22\u0e07\u0e40\u0e2b\u0e19\u0e37\u0e2d"
            },
            {
                "code": "45",
                "name_th": "\u0e23\u0e49\u0e2d\u0e22\u0e40\u0e2d\u0e47\u0e14",
                "region_id": "2",
                "region_name": "\u0e20\u0e32\u0e04\u0e15\u0e30\u0e27\u0e31\u0e19\u0e2d\u0e2d\u0e01\u0e40\u0e09\u0e35\u0e22\u0e07\u0e40\u0e2b\u0e19\u0e37\u0e2d"
            },
            {
                "code": "46",
                "name_th": "\u0e01\u0e32\u0e2c\u0e2a\u0e34\u0e19\u0e18\u0e38\u0e4c",
                "region_id": "2",
                "region_name": "\u0e20\u0e32\u0e04\u0e15\u0e30\u0e27\u0e31\u0e19\u0e2d\u0e2d\u0e01\u0e40\u0e09\u0e35\u0e22\u0e07\u0e40\u0e2b\u0e19\u0e37\u0e2d"
            },
            {
                "code": "47",
                "name_th": "\u0e2a\u0e01\u0e25\u0e19\u0e04\u0e23",
                "region_id": "2",
                "region_name": "\u0e20\u0e32\u0e04\u0e15\u0e30\u0e27\u0e31\u0e19\u0e2d\u0e2d\u0e01\u0e40\u0e09\u0e35\u0e22\u0e07\u0e40\u0e2b\u0e19\u0e37\u0e2d"
            },
            {
                "code": "48",
                "name_th": "\u0e19\u0e04\u0e23\u0e1e\u0e19\u0e21",
                "region_id": "2",
                "region_name": "\u0e20\u0e32\u0e04\u0e15\u0e30\u0e27\u0e31\u0e19\u0e2d\u0e2d\u0e01\u0e40\u0e09\u0e35\u0e22\u0e07\u0e40\u0e2b\u0e19\u0e37\u0e2d"
            },
            {
                "code": "49",
                "name_th": "\u0e21\u0e38\u0e01\u0e14\u0e32\u0e2b\u0e32\u0e23",
                "region_id": "2",
                "region_name": "\u0e20\u0e32\u0e04\u0e15\u0e30\u0e27\u0e31\u0e19\u0e2d\u0e2d\u0e01\u0e40\u0e09\u0e35\u0e22\u0e07\u0e40\u0e2b\u0e19\u0e37\u0e2d"
            },
            {
                "code": "50",
                "name_th": "\u0e40\u0e0a\u0e35\u0e22\u0e07\u0e43\u0e2b\u0e21\u0e48",
                "region_id": "1",
                "region_name": "\u0e20\u0e32\u0e04\u0e40\u0e2b\u0e19\u0e37\u0e2d"
            },
            {
                "code": "51",
                "name_th": "\u0e25\u0e33\u0e1e\u0e39\u0e19",
                "region_id": "1",
                "region_name": "\u0e20\u0e32\u0e04\u0e40\u0e2b\u0e19\u0e37\u0e2d"
            },
            {
                "code": "52",
                "name_th": "\u0e25\u0e33\u0e1b\u0e32\u0e07",
                "region_id": "1",
                "region_name": "\u0e20\u0e32\u0e04\u0e40\u0e2b\u0e19\u0e37\u0e2d"
            },
            {
                "code": "53",
                "name_th": "\u0e2d\u0e38\u0e15\u0e23\u0e14\u0e34\u0e15\u0e16\u0e4c",
                "region_id": "1",
                "region_name": "\u0e20\u0e32\u0e04\u0e40\u0e2b\u0e19\u0e37\u0e2d"
            },
            {
                "code": "54",
                "name_th": "\u0e41\u0e1e\u0e23\u0e48",
                "region_id": "1",
                "region_name": "\u0e20\u0e32\u0e04\u0e40\u0e2b\u0e19\u0e37\u0e2d"
            },
            {
                "code": "55",
                "name_th": "\u0e19\u0e48\u0e32\u0e19",
                "region_id": "1",
                "region_name": "\u0e20\u0e32\u0e04\u0e40\u0e2b\u0e19\u0e37\u0e2d"
            },
            {
                "code": "56",
                "name_th": "\u0e1e\u0e30\u0e40\u0e22\u0e32",
                "region_id": "1",
                "region_name": "\u0e20\u0e32\u0e04\u0e40\u0e2b\u0e19\u0e37\u0e2d"
            },
            {
                "code": "57",
                "name_th": "\u0e40\u0e0a\u0e35\u0e22\u0e07\u0e23\u0e32\u0e22",
                "region_id": "1",
                "region_name": "\u0e20\u0e32\u0e04\u0e40\u0e2b\u0e19\u0e37\u0e2d"
            },
            {
                "code": "58",
                "name_th": "\u0e41\u0e21\u0e48\u0e2e\u0e48\u0e2d\u0e07\u0e2a\u0e2d\u0e19",
                "region_id": "1",
                "region_name": "\u0e20\u0e32\u0e04\u0e40\u0e2b\u0e19\u0e37\u0e2d"
            },
            {
                "code": "60",
                "name_th": "\u0e19\u0e04\u0e23\u0e2a\u0e27\u0e23\u0e23\u0e04\u0e4c",
                "region_id": "1",
                "region_name": "\u0e20\u0e32\u0e04\u0e40\u0e2b\u0e19\u0e37\u0e2d"
            },
            {
                "code": "61",
                "name_th": "\u0e2d\u0e38\u0e17\u0e31\u0e22\u0e18\u0e32\u0e19\u0e35",
                "region_id": "1",
                "region_name": "\u0e20\u0e32\u0e04\u0e40\u0e2b\u0e19\u0e37\u0e2d"
            },
            {
                "code": "62",
                "name_th": "\u0e01\u0e33\u0e41\u0e1e\u0e07\u0e40\u0e1e\u0e0a\u0e23",
                "region_id": "1",
                "region_name": "\u0e20\u0e32\u0e04\u0e40\u0e2b\u0e19\u0e37\u0e2d"
            },
            {
                "code": "63",
                "name_th": "\u0e15\u0e32\u0e01",
                "region_id": "1",
                "region_name": "\u0e20\u0e32\u0e04\u0e40\u0e2b\u0e19\u0e37\u0e2d"
            },
            {
                "code": "64",
                "name_th": "\u0e2a\u0e38\u0e42\u0e02\u0e17\u0e31\u0e22",
                "region_id": "1",
                "region_name": "\u0e20\u0e32\u0e04\u0e40\u0e2b\u0e19\u0e37\u0e2d"
            },
            {
                "code": "65",
                "name_th": "\u0e1e\u0e34\u0e29\u0e13\u0e38\u0e42\u0e25\u0e01",
                "region_id": "1",
                "region_name": "\u0e20\u0e32\u0e04\u0e40\u0e2b\u0e19\u0e37\u0e2d"
            },
            {
                "code": "66",
                "name_th": "\u0e1e\u0e34\u0e08\u0e34\u0e15\u0e23",
                "region_id": "1",
                "region_name": "\u0e20\u0e32\u0e04\u0e40\u0e2b\u0e19\u0e37\u0e2d"
            },
            {
                "code": "67",
                "name_th": "\u0e40\u0e1e\u0e0a\u0e23\u0e1a\u0e39\u0e23\u0e13\u0e4c",
                "region_id": "1",
                "region_name": "\u0e20\u0e32\u0e04\u0e40\u0e2b\u0e19\u0e37\u0e2d"
            },
            {
                "code": "70",
                "name_th": "\u0e23\u0e32\u0e0a\u0e1a\u0e38\u0e23\u0e35",
                "region_id": "6",
                "region_name": "\u0e20\u0e32\u0e04\u0e15\u0e30\u0e27\u0e31\u0e19\u0e15\u0e01"
            },
            {
                "code": "71",
                "name_th": "\u0e01\u0e32\u0e0d\u0e08\u0e19\u0e1a\u0e38\u0e23\u0e35",
                "region_id": "6",
                "region_name": "\u0e20\u0e32\u0e04\u0e15\u0e30\u0e27\u0e31\u0e19\u0e15\u0e01"
            },
            {
                "code": "72",
                "name_th": "\u0e2a\u0e38\u0e1e\u0e23\u0e23\u0e13\u0e1a\u0e38\u0e23\u0e35",
                "region_id": "6",
                "region_name": "\u0e20\u0e32\u0e04\u0e15\u0e30\u0e27\u0e31\u0e19\u0e15\u0e01"
            },
            {
                "code": "73",
                "name_th": "\u0e19\u0e04\u0e23\u0e1b\u0e10\u0e21",
                "region_id": "7",
                "region_name": "\u0e01\u0e23\u0e38\u0e07\u0e40\u0e17\u0e1e\u0e41\u0e25\u0e30\u0e1b\u0e23\u0e34\u0e21\u0e13\u0e11\u0e25"
            },
            {
                "code": "74",
                "name_th": "\u0e2a\u0e21\u0e38\u0e17\u0e23\u0e2a\u0e32\u0e04\u0e23",
                "region_id": "7",
                "region_name": "\u0e01\u0e23\u0e38\u0e07\u0e40\u0e17\u0e1e\u0e41\u0e25\u0e30\u0e1b\u0e23\u0e34\u0e21\u0e13\u0e11\u0e25"
            },
            {
                "code": "75",
                "name_th": "\u0e2a\u0e21\u0e38\u0e17\u0e23\u0e2a\u0e07\u0e04\u0e23\u0e32\u0e21",
                "region_id": "6",
                "region_name": "\u0e20\u0e32\u0e04\u0e15\u0e30\u0e27\u0e31\u0e19\u0e15\u0e01"
            },
            {
                "code": "76",
                "name_th": "\u0e40\u0e1e\u0e0a\u0e23\u0e1a\u0e38\u0e23\u0e35",
                "region_id": "6",
                "region_name": "\u0e20\u0e32\u0e04\u0e15\u0e30\u0e27\u0e31\u0e19\u0e15\u0e01"
            },
            {
                "code": "77",
                "name_th": "\u0e1b\u0e23\u0e30\u0e08\u0e27\u0e1a\u0e04\u0e35\u0e23\u0e35\u0e02\u0e31\u0e19\u0e18\u0e4c",
                "region_id": "6",
                "region_name": "\u0e20\u0e32\u0e04\u0e15\u0e30\u0e27\u0e31\u0e19\u0e15\u0e01"
            },
            {
                "code": "80",
                "name_th": "\u0e19\u0e04\u0e23\u0e28\u0e23\u0e35\u0e18\u0e23\u0e23\u0e21\u0e23\u0e32\u0e0a",
                "region_id": "4",
                "region_name": "\u0e20\u0e32\u0e04\u0e43\u0e15\u0e49"
            },
            {
                "code": "81",
                "name_th": "\u0e01\u0e23\u0e30\u0e1a\u0e35\u0e48",
                "region_id": "4",
                "region_name": "\u0e20\u0e32\u0e04\u0e43\u0e15\u0e49"
            },
            {
                "code": "82",
                "name_th": "\u0e1e\u0e31\u0e07\u0e07\u0e32",
                "region_id": "4",
                "region_name": "\u0e20\u0e32\u0e04\u0e43\u0e15\u0e49"
            },
            {
                "code": "83",
                "name_th": "\u0e20\u0e39\u0e40\u0e01\u0e47\u0e15",
                "region_id": "4",
                "region_name": "\u0e20\u0e32\u0e04\u0e43\u0e15\u0e49"
            },
            {
                "code": "84",
                "name_th": "\u0e2a\u0e38\u0e23\u0e32\u0e29\u0e0e\u0e23\u0e4c\u0e18\u0e32\u0e19\u0e35",
                "region_id": "4",
                "region_name": "\u0e20\u0e32\u0e04\u0e43\u0e15\u0e49"
            },
            {
                "code": "85",
                "name_th": "\u0e23\u0e30\u0e19\u0e2d\u0e07",
                "region_id": "4",
                "region_name": "\u0e20\u0e32\u0e04\u0e43\u0e15\u0e49"
            },
            {
                "code": "86",
                "name_th": "\u0e0a\u0e38\u0e21\u0e1e\u0e23",
                "region_id": "4",
                "region_name": "\u0e20\u0e32\u0e04\u0e43\u0e15\u0e49"
            },
            {
                "code": "90",
                "name_th": "\u0e2a\u0e07\u0e02\u0e25\u0e32",
                "region_id": "4",
                "region_name": "\u0e20\u0e32\u0e04\u0e43\u0e15\u0e49"
            },
            {
                "code": "91",
                "name_th": "\u0e2a\u0e15\u0e39\u0e25",
                "region_id": "4",
                "region_name": "\u0e20\u0e32\u0e04\u0e43\u0e15\u0e49"
            },
            {
                "code": "92",
                "name_th": "\u0e15\u0e23\u0e31\u0e07",
                "region_id": "4",
                "region_name": "\u0e20\u0e32\u0e04\u0e43\u0e15\u0e49"
            },
            {
                "code": "93",
                "name_th": "\u0e1e\u0e31\u0e17\u0e25\u0e38\u0e07",
                "region_id": "4",
                "region_name": "\u0e20\u0e32\u0e04\u0e43\u0e15\u0e49"
            },
            {
                "code": "94",
                "name_th": "\u0e1b\u0e31\u0e15\u0e15\u0e32\u0e19\u0e35",
                "region_id": "4",
                "region_name": "\u0e20\u0e32\u0e04\u0e43\u0e15\u0e49"
            },
            {
                "code": "95",
                "name_th": "\u0e22\u0e30\u0e25\u0e32",
                "region_id": "4",
                "region_name": "\u0e20\u0e32\u0e04\u0e43\u0e15\u0e49"
            },
            {
                "code": "96",
                "name_th": "\u0e19\u0e23\u0e32\u0e18\u0e34\u0e27\u0e32\u0e2a",
                "region_id": "4",
                "region_name": "\u0e20\u0e32\u0e04\u0e43\u0e15\u0e49"
            }
        ]
    }
}